{"type": "FeatureCollection", "features": [ {"type": "Feature", "properties": {"norad_id": 43262, "name": "GAOFEN-1 04", "group": "resource", "lat": -46.44275120647347, "lon": -146.13787772809468, "alt_km": 648.1742394116745, "timestamp": "2025-12-10T14:53:36.780195+00:00", "meta": {"OBJECT_NAME": "GAOFEN-1 04", "OBJECT_ID": "2018-031D", "EPOCH": "2025-12-10T07:21:45.587232", "MEAN_MOTION": 14.76440564, "ECCENTRICITY": 0.00011567, "INCLINATION": 98.0806, "RA_OF_ASC_NODE": 42.1411, "ARG_OF_PERICENTER": 55.4836, "MEAN_ANOMALY": 304.6483, "EPHEMERIS_TYPE": 0, "CLASSIFICATION_TYPE": "U", "NORAD_CAT_ID": 43262, "ELEMENT_SET_NO": 999, "REV_AT_EPOCH": 41481, "BSTAR": 0.00016587109, "MEAN_MOTION_DOT": 1.102e-05, "MEAN_MOTION_DDOT": 0}, "tle": {"line1": "1 43262U 18031D   25344.30677763  .00001102  00000+0  16587-3 0  9990", "line2": "2 43262  98.0806  42.1411 0001156  55.4836 304.6483 14.76440564414814"}}, "geometry": {"type": "Point", "coordinates": [-146.13787772809468, -46.44275120647347]}}, {"type": "Feature", "properties": {"norad_id": 43437, "name": "SENTINEL-3B", "group": "resource", "lat": 51.309817328321216, "lon": 38.908992548170396, "alt_km": 797.1767573243396, "timestamp": "2025-12-10T14:53:36.780205+00:00", "meta": {"OBJECT_NAME": "SENTINEL-3B", "OBJECT_ID": "2018-039A", "EPOCH": "2025-12-10T04:33:04.965120", "MEAN_MOTION": 14.26741344, "ECCENTRICITY": 0.00015583, "INCLINATION": 98.6268, "RA_OF_ASC_NODE": 49.4113, "ARG_OF_PERICENTER": 105.5141, "MEAN_ANOMALY": 254.6211, "EPHEMERIS_TYPE": 0, "CLASSIFICATION_TYPE": "U", "NORAD_CAT_ID": 43437, "ELEMENT_SET_NO": 999, "REV_AT_EPOCH": 39717, "BSTAR": 0.00011425115, "MEAN_MOTION_DOT": 2.33e-06, "MEAN_MOTION_DDOT": 0}, "tle": {"line1": "1 43437U 18039A   25344.18964080  .00000233  00000+0  11425-3 0  9999", "line2": "2 43437  98.6268  49.4113 0001558 105.5141 254.6211 14.26741344397174"}}, "geometry": {"type": "Point", "coordinates": [38.908992548170396, 51.309817328321216]}}, {"type": "Feature", "properties": {"norad_id": 43461, "name": "GAOFEN-5 01", "group": "resource", "lat": 34.65682744946188, "lon": 133.43674101229033, "alt_km": 690.3068160438988, "timestamp": "2025-12-10T14:53:36.780214+00:00", "meta": {"OBJECT_NAME": "GAOFEN-5 01", "OBJECT_ID": "2018-043A", "EPOCH": "2025-12-10T04:21:59.597856", "MEAN_MOTION": 14.60405558, "ECCENTRICITY": 0.00011275, "INCLINATION": 98.4322, "RA_OF_ASC_NODE": 307.1045, "ARG_OF_PERICENTER": 350.6104, "MEAN_ANOMALY": 9.5074, "EPHEMERIS_TYPE": 0, "CLASSIFICATION_TYPE": "U", "NORAD_CAT_ID": 43461, "ELEMENT_SET_NO": 999, "REV_AT_EPOCH": 40410, "BSTAR": 0.00017672102, "MEAN_MOTION_DOT": 8.07e-06, "MEAN_MOTION_DDOT": 0}, "tle": {"line1": "1 43461U 18043A   25344.18193979  .00000807  00000+0  17672-3 0  9999", "line2": "2 43461  98.4322 307.1045 0001127 350.6104   9.5074 14.60405558404100"}}, "geometry": {"type": "Point", "coordinates": [133.43674101229033, 34.65682744946188]}}, {"type": "Feature", "properties": {"norad_id": 43484, "name": "GAOFEN-6", "group": "resource", "lat": 16.908745579190406, "lon": 46.569427404556265, "alt_km": 635.0858191530342, "timestamp": "2025-12-10T14:53:36.780223+00:00", "meta": {"OBJECT_NAME": "GAOFEN-6", "OBJECT_ID": "2018-048A", "EPOCH": "2025-12-10T06:41:04.624800", "MEAN_MOTION": 14.7655906, "ECCENTRICITY": 0.00132882, "INCLINATION": 97.803, "RA_OF_ASC_NODE": 48.628, "ARG_OF_PERICENTER": 70.7103, "MEAN_ANOMALY": 289.5543, "EPHEMERIS_TYPE": 0, "CLASSIFICATION_TYPE": "U", "NORAD_CAT_ID": 43484, "ELEMENT_SET_NO": 999, "REV_AT_EPOCH": 40551, "BSTAR": 0.00020380425, "MEAN_MOTION_DOT": 1.374e-05, "MEAN_MOTION_DDOT": 0}, "tle": {"line1": "1 43484U 18048A   25344.27852575  .00001374  00000+0  20380-3 0  9993", "line2": "2 43484  97.8030  48.6280 0013288  70.7103 289.5543 14.76559060405514"}}, "geometry": {"type": "Point", "coordinates": [46.569427404556265, 16.908745579190406]}}, {"type": "Feature", "properties": {"norad_id": 43585, "name": "GAOFEN-11 01", "group": "resource", "lat": -9.146047631177948, "lon": 48.73176649784247, "alt_km": 420.78952115196626, "timestamp": "2025-12-10T14:53:36.780237+00:00", "meta": {"OBJECT_NAME": "GAOFEN-11 01", "OBJECT_ID": "2018-063A", "EPOCH": "2025-12-10T07:10:54.414624", "MEAN_MOTION": 15.49113069, "ECCENTRICITY": 0.00045003, "INCLINATION": 97.1556, "RA_OF_ASC_NODE": 47.2542, "ARG_OF_PERICENTER": 325.1082, "MEAN_ANOMALY": 34.9874, "EPHEMERIS_TYPE": 0, "CLASSIFICATION_TYPE": "U", "NORAD_CAT_ID": 43585, "ELEMENT_SET_NO": 999, "REV_AT_EPOCH": 41104, "BSTAR": 0.00045611071, "MEAN_MOTION_DOT": 0.00024738, "MEAN_MOTION_DDOT": 0}, "tle": {"line1": "1 43585U 18063A   25344.29924091  .00024738  00000+0  45611-3 0  9990", "line2": "2 43585  97.1556  47.2542 0004500 325.1082  34.9874 15.49113069411048"}}, "geometry": {"type": "Point", "coordinates": [48.73176649784247, -9.146047631177948]}}, {"type": "Feature", "properties": {"norad_id": 43613, "name": "ICESAT-2", "group": "resource", "lat": -66.4187840929412, "lon": 55.563574136310386, "alt_km": 488.31427468655875, "timestamp": "2025-12-10T14:53:36.780247+00:00", "meta": {"OBJECT_NAME": "ICESAT-2", "OBJECT_ID": "2018-070A", "EPOCH": "2025-12-10T05:57:40.163328", "MEAN_MOTION": 15.28294292, "ECCENTRICITY": 0.00024365, "INCLINATION": 92.0043, "RA_OF_ASC_NODE": 240.065, "ARG_OF_PERICENTER": 155.1864, "MEAN_ANOMALY": 204.9503, "EPHEMERIS_TYPE": 0, "CLASSIFICATION_TYPE": "U", "NORAD_CAT_ID": 43613, "ELEMENT_SET_NO": 999, "REV_AT_EPOCH": 40360, "BSTAR": 0.00066670631, "MEAN_MOTION_DOT": 0.00018387, "MEAN_MOTION_DDOT": 0}, "tle": {"line1": "1 43613U 18070A   25344.24838152  .00018387  00000+0  66671-3 0  9999", "line2": "2 43613  92.0043 240.0650 0002436 155.1864 204.9503 15.28294292403609"}}, "geometry": {"type": "Point", "coordinates": [55.563574136310386, -66.4187840929412]}}, {"type": "Feature", "properties": {"norad_id": 43719, "name": "HYSIS", "group": "resource", "lat": 36.239878305851214, "lon": 41.68475008812825, "alt_km": 630.1364534669619, "timestamp": "2025-12-10T14:53:36.780255+00:00", "meta": {"OBJECT_NAME": "HYSIS", "OBJECT_ID": "2018-096A", "EPOCH": "2025-12-10T06:36:28.225152", "MEAN_MOTION": 14.78634177, "ECCENTRICITY": 0.00014968, "INCLINATION": 98.0096, "RA_OF_ASC_NODE": 47.265, "ARG_OF_PERICENTER": 56.2424, "MEAN_ANOMALY": 303.8929, "EPHEMERIS_TYPE": 0, "CLASSIFICATION_TYPE": "U", "NORAD_CAT_ID": 43719, "ELEMENT_SET_NO": 999, "REV_AT_EPOCH": 37950, "BSTAR": 0.00028680855, "MEAN_MOTION_DOT": 2.048e-05, "MEAN_MOTION_DDOT": 0}, "tle": {"line1": "1 43719U 18096A   25344.27532668  .00002048  00000+0  28681-3 0  9996", "line2": "2 43719  98.0096  47.2650 0001496  56.2424 303.8929 14.78634177379501"}}, "geometry": {"type": "Point", "coordinates": [41.68475008812825, 36.239878305851214]}}, {"type": "Feature", "properties": {"norad_id": 43783, "name": "KAZSTSAT", "group": "resource", "lat": 63.61281885094728, "lon": -144.79847582169845, "alt_km": 565.7491130416829, "timestamp": "2025-12-10T14:53:36.780264+00:00", "meta": {"OBJECT_NAME": "KAZSTSAT", "OBJECT_ID": "2018-099AB", "EPOCH": "2025-12-10T01:34:02.667360", "MEAN_MOTION": 14.99340105, "ECCENTRICITY": 0.00060291, "INCLINATION": 97.4557, "RA_OF_ASC_NODE": 19.3651, "ARG_OF_PERICENTER": 341.3852, "MEAN_ANOMALY": 18.715, "EPHEMERIS_TYPE": 0, "CLASSIFICATION_TYPE": "U", "NORAD_CAT_ID": 43783, "ELEMENT_SET_NO": 999, "REV_AT_EPOCH": 38296, "BSTAR": 0.00018808348, "MEAN_MOTION_DOT": 2.244e-05, "MEAN_MOTION_DDOT": 0}, "tle": {"line1": "1 43783U 18099AB  25344.06530865  .00002244  00000+0  18808-3 0  9992", "line2": "2 43783  97.4557  19.3651 0006029 341.3852  18.7150 14.99340105382968"}}, "geometry": {"type": "Point", "coordinates": [-144.79847582169845, 63.61281885094728]}}, {"type": "Feature", "properties": {"norad_id": 43831, "name": "SAUDISAT 5A", "group": "resource", "lat": -32.168004307218084, "lon": 49.4994224221393, "alt_km": 498.522028600868, "timestamp": "2025-12-10T14:53:36.780274+00:00", "meta": {"OBJECT_NAME": "SAUDISAT 5A", "OBJECT_ID": "2018-102A", "EPOCH": "2025-12-10T07:09:53.492256", "MEAN_MOTION": 15.25607883, "ECCENTRICITY": 0.00118157, "INCLINATION": 97.3352, "RA_OF_ASC_NODE": 44.5364, "ARG_OF_PERICENTER": 83.6299, "MEAN_ANOMALY": 276.6285, "EPHEMERIS_TYPE": 0, "CLASSIFICATION_TYPE": "U", "NORAD_CAT_ID": 43831, "ELEMENT_SET_NO": 999, "REV_AT_EPOCH": 38685, "BSTAR": 0.00035827242, "MEAN_MOTION_DOT": 9.053e-05, "MEAN_MOTION_DDOT": 0}, "tle": {"line1": "1 43831U 18102A   25344.29853579  .00009053  00000+0  35827-3 0  9991", "line2": "2 43831  97.3352  44.5364 0011815  83.6299 276.6285 15.25607883386850"}}, "geometry": {"type": "Point", "coordinates": [49.4994224221393, -32.168004307218084]}}, {"type": "Feature", "properties": {"norad_id": 43833, "name": "SAUDISAT 5B", "group": "resource", "lat": 16.928548978019666, "lon": 45.337004839473764, "alt_km": 485.2639645659383, "timestamp": "2025-12-10T14:53:36.780283+00:00", "meta": {"OBJECT_NAME": "SAUDISAT 5B", "OBJECT_ID": "2018-102C", "EPOCH": "2025-12-10T06:57:00.197568", "MEAN_MOTION": 15.25960991, "ECCENTRICITY": 0.00125155, "INCLINATION": 97.3447, "RA_OF_ASC_NODE": 47.2618, "ARG_OF_PERICENTER": 86.0563, "MEAN_ANOMALY": 274.2106, "EPHEMERIS_TYPE": 0, "CLASSIFICATION_TYPE": "U", "NORAD_CAT_ID": 43833, "ELEMENT_SET_NO": 999, "REV_AT_EPOCH": 38696, "BSTAR": 0.00033721712, "MEAN_MOTION_DOT": 8.61e-05, "MEAN_MOTION_DDOT": 0}, "tle": {"line1": "1 43833U 18102C   25344.28958562  .00008610  00000+0  33722-3 0  9990", "line2": "2 43833  97.3447  47.2618 0012515  86.0563 274.2106 15.25960991386968"}}, "geometry": {"type": "Point", "coordinates": [45.337004839473764, 16.928548978019666]}}]}